MOVE-II                 
1 43780U 18099Y   22257.45637026  .00005637  00000+0  47778-3 0  9996
2 43780  97.6158 322.8345 0011472 337.0246  23.0462 14.98303992206381
SPACEBEE-7              
1 43816U 18099BL  22257.65198682  .00004138  00000+0  35391-3 0  9991
2 43816  97.6176 323.7543 0011578 317.3058  42.7264 14.98106187206004
SPACEBEE-5              
1 43817U 18099BM  22257.14977837  .00011382  00000+0  86239-3 0  9999
2 43817  97.6255 326.7552 0005193 313.6770  46.4024 15.02421223206082
SPACEBEE-6              
1 43818U 18099BN  22257.47507012  .00006385  00000+0  52625-3 0  9999
2 43818  97.6241 324.6449 0010067 322.9173  37.1354 14.99349813206178
SHIELDS 1               
1 43850U 18104B   22257.28826625  .00004954  00000+0  20197-3 0  9994
2 43850  85.0325 353.2526 0011915 303.1079  56.9020 15.24118729208036
STF-1                   
1 43852U 18104D   22257.30635864  .00012295  00000+0  44613-3 0  9998
2 43852  85.0347 353.2682 0010714 315.3081  44.7300 15.28141761208109
ZACUBE-2                
1 43907U 18111AH  22257.87834698  .00008932  00000+0  31849-3 0  9995
2 43907  97.1768 141.0102 0021170 118.8821 303.7334 15.28907188206956
LUME 1                  
1 43908U 18111AJ  22257.13255145  .00011502  00000+0  37456-3 0  9996
2 43908  97.1767 142.1743 0019738 114.4251 245.9053 15.31806738206964
AOBA VELOX-IV           
1 43940U 19003J   22257.34024409  .00030450  00000+0  72336-3 0  9992
2 43940  97.1190 290.7803 0016658 175.3187 184.8220 15.41481349203804
MOVE-IIB                
1 44398U 19038N   22257.59408207  .00014775  00000+0  67829-3 0  9990
2 44398  97.6330 227.8963 0020942 172.1271 188.0304 15.20314981176577
SONATE                  
1 44400U 19038Q   22257.55828118  .00005616  00000+0  29992-3 0  9990
2 44400  97.6461 226.5425 0023185 181.1977 178.9203 15.15302977176426
LUCKY-7                 
1 44406U 19038W   22257.63096614  .00006412  00000+0  33189-3 0  9991
2 44406  97.6481 227.2308 0022345 177.7697 182.3639 15.16366538176470
BEESAT 9                
1 44412U 19038AC  22257.47394443  .00010420  00000+0  51271-3 0  9997
2 44412  97.6447 227.5204 0019692 180.3862 179.7360 15.18025746176197
JAISAT-1                
1 44419U 19038F   22257.49781377  .00009471  00000+0  46029-3 0  9991
2 44419  97.6450 228.4509 0018834 176.7800 183.3558 15.18498396176560
DUCHIFAT-3              
1 44854U 19089C   22257.52318230  .00003914  00000+0  30209-3 0  9997
2 44854  36.9661 292.1118 0008541 230.8761 284.7364 15.01566952151323
EYESAT-NANO             
1 44877U 19092E   22257.45920931  .00013257  00000+0  54798-3 0  9995
2 44877  97.4651  81.3070 0012023  48.9936 311.2339 15.24046841151914
ORBITAL FACTORY 2 (OF-2)
1 45113U 19071C   22257.62010165  .00038396  00000+0  68418-3 0  9999
2 45113  51.6381 339.3211 0007511 132.8288 227.3333 15.49695538147187
M2 PATHFINDER           
1 45727U 20037E   22257.47557495  .00001229  00000+0  12589-3 0  9992
2 45727  97.7396  71.3532 0013713  98.8766 261.4041 14.92219905120102
NETSAT-4                
1 46504U 20068U   22257.54978762  .00003476  00000+0  25676-3 0  9999
2 46504  97.7279 197.2100 0013520  33.4140 326.7937 15.03831830107432
NETSAT-3                
1 46505U 20068V   22257.63434079  .00003960  00000+0  29234-3 0  9990
2 46505  97.7266 197.2010 0012024  40.9674 319.2457 15.03791112107456
NETSAT-1                
1 46506U 20068W   22257.58760797  .00003924  00000+0  29040-3 0  9999
2 46506  97.7258 197.0738 0010340  46.9803 313.2313 15.03713968107449
NETSAT-2                
1 46507U 20068X   22257.39861248  .00002953  00000+0  21986-3 0  9994
2 46507  97.7273 196.8796 0010142  53.5230 306.6934 15.03691110107366
SAI-1 NANOCONNECT-2     
1 47701U 21015C   22257.16435692  .00014619  00000+0  52090-3 0  9991
2 47701  97.4174 333.7361 0011945 136.1718 224.0472 15.28958643 85764
BEESAT-6                
1 47957U 21022AB  22257.52927405  .00007451  00000+0  46613-3 0  9990
2 47957  97.5167 155.4044 0019099 197.0452 286.7657 15.09549722 81237
SMOG-1                  
1 47964U 21022AJ  22257.27485725  .00008682  00000+0  52160-3 0  9995
2 47964  97.5188 156.3956 0017734 185.2922 174.8123 15.10996169 80298
MMSATS-1                
1 47976U 98067SJ  22257.77749356  .00035046  00000+0  38349-3 0  9996
2 47976  51.6386 235.1169 0002352  38.7093  23.9344 15.62947322 84214
BCCSAT-1                
1 48041U 21022AK  22257.44453243  .00006959  00000+0  43027-3 0  9998
2 48041  97.5196 156.0713 0014570 181.0769 179.0432 15.10068120 80264
BEESAT-5                
1 48083U 21022AM  22257.69373237  .00008450  00000+0  52476-3 0  9991
2 48083  97.5162 155.5774 0019176 196.1075 194.6130 15.09774782 80396
BEESAT-7                
1 48084U 21022AN  22257.52129922  .00007724  00000+0  48185-3 0  9999
2 48084  97.5184 155.4097 0019173 197.0397 288.6980 15.09640348 79959
BEESAT-8                
1 48085U 21022AP  22257.91353188  .00006810  00000+0  42697-3 0  9993
2 48085  97.5185 155.7839 0019438 196.1843 227.4958 15.09496039 80570
RAMSAT                  
1 48850U 98067SL  22257.32680141  .00260478  00000+0  86813-3 0  9993
2 48850  51.6330 218.5925 0005006  88.3575 271.8004 15.88978912 71361
BD-28                   
1 48867U 98067SN  22257.26308336  .04680231  12095-4  98313-3 0  9994
2 48867  51.6097 209.5931 0002868 207.1851 152.9021 16.30144852 70225
BINAR-1                 
1 49272U 98067SR  22257.31021666  .00427210  84613-4  10431-2 0  9990
2 49272  51.6243 221.3822 0003447  95.4698 264.6704 15.95619363 53719
HSU-SAT1                
1 53462U 98067UB  22257.44227370  .00040769  00000+0  65094-3 0  9999
2 53462  51.6396 253.9927 0005195 259.9029 100.1375 15.52767754  5141
FUTABA                  
1 53463U 98067UC  22257.43830714  .00048575  00000+0  76317-3 0  9994
2 53463  51.6393 253.9660 0004984 260.5277  99.5150 15.53137840  5141
TUMNANOSAT              
1 53464U 98067UD  22257.69170058  .00059149  00000+0  91380-3 0  9997
2 53464  51.6390 252.6594 0004823 262.2454  97.7989 15.53518788  5187
